{"type": "FeatureCollection", "features": [ {"type": "Feature", "properties": {"norad_id": 31073, "name": "FENGYUN 1C DEB", "group": "fengyun-1c-debris", "lat": 11.324555016467356, "lon": 33.24603180377784, "alt_km": 802.7592062688755, "timestamp": "2025-12-26T23:26:42.408419+00:00", "meta": {"OBJECT_NAME": "FENGYUN 1C DEB", "OBJECT_ID": "1999-025BFT", "EPOCH": "2025-12-26T07:29:05.668224", "MEAN_MOTION": 14.24861925, "ECCENTRICITY": 0.00447841, "INCLINATION": 99.2199, "RA_OF_ASC_NODE": 210.684, "ARG_OF_PERICENTER": 247.0822, "MEAN_ANOMALY": 112.5626, "EPHEMERIS_TYPE": 0, "CLASSIFICATION_TYPE": "U", "NORAD_CAT_ID": 31073, "ELEMENT_SET_NO": 999, "REV_AT_EPOCH": 97276, "BSTAR": 0.001068464, "MEAN_MOTION_DOT": 2.472e-05, "MEAN_MOTION_DDOT": 0}, "tle": {"line1": "1 31073U 99025BFT 25360.31187116  .00002472  00000+0  10685-2 0  9999", "line2": "2 31073  99.2199 210.6840 0044784 247.0822 112.5626 14.24861925972764"}}, "geometry": {"type": "Point", "coordinates": [33.24603180377784, 11.324555016467356]}}, {"type": "Feature", "properties": {"norad_id": 31074, "name": "FENGYUN 1C DEB", "group": "fengyun-1c-debris", "lat": -76.70985278764323, "lon": -42.08665799250652, "alt_km": 815.3443142861297, "timestamp": "2025-12-26T23:26:42.408428+00:00", "meta": {"OBJECT_NAME": "FENGYUN 1C DEB", "OBJECT_ID": "1999-025BFU", "EPOCH": "2025-12-25T17:15:45.123264", "MEAN_MOTION": 14.14335151, "ECCENTRICITY": 0.00863428, "INCLINATION": 98.9581, "RA_OF_ASC_NODE": 274.7566, "ARG_OF_PERICENTER": 228.8488, "MEAN_ANOMALY": 130.5212, "EPHEMERIS_TYPE": 0, "CLASSIFICATION_TYPE": "U", "NORAD_CAT_ID": 31074, "ELEMENT_SET_NO": 999, "REV_AT_EPOCH": 95763, "BSTAR": 0.0019375596, "MEAN_MOTION_DOT": 3.795e-05, "MEAN_MOTION_DDOT": 0}, "tle": {"line1": "1 31074U 99025BFU 25359.71927226  .00003795  00000+0  19376-2 0  9991", "line2": "2 31074  98.9581 274.7566 0086342 228.8488 130.5212 14.14335151957639"}}, "geometry": {"type": "Point", "coordinates": [-42.08665799250652, -76.70985278764323]}}, {"type": "Feature", "properties": {"norad_id": 31078, "name": "FENGYUN 1C DEB", "group": "fengyun-1c-debris", "lat": -68.35880152733404, "lon": 84.65573528862812, "alt_km": 909.8478000937412, "timestamp": "2025-12-26T23:26:42.408437+00:00", "meta": {"OBJECT_NAME": "FENGYUN 1C DEB", "OBJECT_ID": "1999-025BFY", "EPOCH": "2025-12-25T10:41:17.935008", "MEAN_MOTION": 14.22107607, "ECCENTRICITY": 0.0117309, "INCLINATION": 98.8648, "RA_OF_ASC_NODE": 59.9531, "ARG_OF_PERICENTER": 112.5662, "MEAN_ANOMALY": 260.9164, "EPHEMERIS_TYPE": 0, "CLASSIFICATION_TYPE": "U", "NORAD_CAT_ID": 31078, "ELEMENT_SET_NO": 999, "REV_AT_EPOCH": 97073, "BSTAR": 0.00051406, "MEAN_MOTION_DOT": 1.177e-05, "MEAN_MOTION_DDOT": 0}, "tle": {"line1": "1 31078U 99025BFY 25359.44534647  .00001177  00000+0  51406-3 0  9999", "line2": "2 31078  98.8648  59.9531 0117309 112.5662 260.9164 14.22107607970734"}}, "geometry": {"type": "Point", "coordinates": [84.65573528862812, -68.35880152733404]}}, {"type": "Feature", "properties": {"norad_id": 31081, "name": "FENGYUN 1C DEB", "group": "fengyun-1c-debris", "lat": -23.490379778689352, "lon": 20.81396494712564, "alt_km": 906.0428078721079, "timestamp": "2025-12-26T23:26:42.408446+00:00", "meta": {"OBJECT_NAME": "FENGYUN 1C DEB", "OBJECT_ID": "1999-025BGB", "EPOCH": "2025-12-23T07:05:52.274688", "MEAN_MOTION": 14.06299048, "ECCENTRICITY": 0.00478119, "INCLINATION": 98.7696, "RA_OF_ASC_NODE": 13.4015, "ARG_OF_PERICENTER": 200.9733, "MEAN_ANOMALY": 228.9859, "EPHEMERIS_TYPE": 0, "CLASSIFICATION_TYPE": "U", "NORAD_CAT_ID": 31081, "ELEMENT_SET_NO": 999, "REV_AT_EPOCH": 96609, "BSTAR": 5.9046128e-05, "MEAN_MOTION_DOT": 5.6e-07, "MEAN_MOTION_DDOT": 0}, "tle": {"line1": "1 31081U 99025BGB 25357.29574392  .00000056  00000+0  59046-4 0  9999", "line2": "2 31081  98.7696  13.4015 0047811 200.9733 228.9859 14.06299048966095"}}, "geometry": {"type": "Point", "coordinates": [20.81396494712564, -23.490379778689352]}}, {"type": "Feature", "properties": {"norad_id": 31083, "name": "FENGYUN 1C DEB", "group": "fengyun-1c-debris", "lat": 7.8333273710470985, "lon": 117.88300268456206, "alt_km": 693.7410075697462, "timestamp": "2025-12-26T23:26:42.408455+00:00", "meta": {"OBJECT_NAME": "FENGYUN 1C DEB", "OBJECT_ID": "1999-025BGD", "EPOCH": "2025-12-26T07:07:20.421696", "MEAN_MOTION": 14.62377083, "ECCENTRICITY": 0.00323186, "INCLINATION": 98.6459, "RA_OF_ASC_NODE": 118.3709, "ARG_OF_PERICENTER": 263.6875, "MEAN_ANOMALY": 125.5688, "EPHEMERIS_TYPE": 0, "CLASSIFICATION_TYPE": "U", "NORAD_CAT_ID": 31083, "ELEMENT_SET_NO": 999, "REV_AT_EPOCH": 97908, "BSTAR": 0.0028305497, "MEAN_MOTION_DOT": 0.00014391, "MEAN_MOTION_DDOT": 0}, "tle": {"line1": "1 31083U 99025BGD 25360.29676414  .00014391  00000+0  28305-2 0  9992", "line2": "2 31083  98.6459 118.3709 0032318 263.6875 125.5688 14.62377083979080"}}, "geometry": {"type": "Point", "coordinates": [117.88300268456206, 7.8333273710470985]}}, {"type": "Feature", "properties": {"norad_id": 31085, "name": "FENGYUN 1C DEB", "group": "fengyun-1c-debris", "lat": -60.08424990222251, "lon": -141.81495571249283, "alt_km": 748.511052233619, "timestamp": "2025-12-26T23:26:42.408464+00:00", "meta": {"OBJECT_NAME": "FENGYUN 1C DEB", "OBJECT_ID": "1999-025BGF", "EPOCH": "2025-12-23T07:34:38.019648", "MEAN_MOTION": 14.30315184, "ECCENTRICITY": 0.00868652, "INCLINATION": 98.9838, "RA_OF_ASC_NODE": 198.4478, "ARG_OF_PERICENTER": 347.3794, "MEAN_ANOMALY": 190.7566, "EPHEMERIS_TYPE": 0, "CLASSIFICATION_TYPE": "U", "NORAD_CAT_ID": 31085, "ELEMENT_SET_NO": 999, "REV_AT_EPOCH": 97867, "BSTAR": 9.7983281e-05, "MEAN_MOTION_DOT": 2.17e-06, "MEAN_MOTION_DDOT": 0}, "tle": {"line1": "1 31085U 99025BGF 25357.31571782  .00000217  00000+0  97983-4 0  9997", "line2": "2 31085  98.9838 198.4478 0086865 347.3794 190.7566 14.30315184978676"}}, "geometry": {"type": "Point", "coordinates": [-141.81495571249283, -60.08424990222251]}}, {"type": "Feature", "properties": {"norad_id": 31087, "name": "FENGYUN 1C DEB", "group": "fengyun-1c-debris", "lat": 7.906248799407884, "lon": -157.787501434591, "alt_km": 658.6740266546603, "timestamp": "2025-12-26T23:26:42.408473+00:00", "meta": {"OBJECT_NAME": "FENGYUN 1C DEB", "OBJECT_ID": "1999-025BGH", "EPOCH": "2025-12-25T12:49:42.953088", "MEAN_MOTION": 14.60421875, "ECCENTRICITY": 0.0171635, "INCLINATION": 98.1018, "RA_OF_ASC_NODE": 19.6679, "ARG_OF_PERICENTER": 250.59, "MEAN_ANOMALY": 264.465, "EPHEMERIS_TYPE": 0, "CLASSIFICATION_TYPE": "U", "NORAD_CAT_ID": 31087, "ELEMENT_SET_NO": 999, "REV_AT_EPOCH": 98956, "BSTAR": 0.0007578, "MEAN_MOTION_DOT": 4.463e-05, "MEAN_MOTION_DDOT": 0}, "tle": {"line1": "1 31087U 99025BGH 25359.53452492  .00004463  00000+0  75780-3 0  9998", "line2": "2 31087  98.1018  19.6679 0171635 250.5900 264.4650 14.60421875989562"}}, "geometry": {"type": "Point", "coordinates": [-157.787501434591, 7.906248799407884]}}, {"type": "Feature", "properties": {"norad_id": 31088, "name": "FENGYUN 1C DEB", "group": "fengyun-1c-debris", "lat": -76.74976825918976, "lon": -162.5012210682081, "alt_km": 812.6721864106466, "timestamp": "2025-12-26T23:26:42.408482+00:00", "meta": {"OBJECT_NAME": "FENGYUN 1C DEB", "OBJECT_ID": "1999-025BGJ", "EPOCH": "2025-12-24T23:45:34.271136", "MEAN_MOTION": 14.28788857, "ECCENTRICITY": 0.00278084, "INCLINATION": 99.4104, "RA_OF_ASC_NODE": 60.1294, "ARG_OF_PERICENTER": 25.3934, "MEAN_ANOMALY": 101.2263, "EPHEMERIS_TYPE": 0, "CLASSIFICATION_TYPE": "U", "NORAD_CAT_ID": 31088, "ELEMENT_SET_NO": 999, "REV_AT_EPOCH": 96724, "BSTAR": 0.0016304991, "MEAN_MOTION_DOT": 4.076e-05, "MEAN_MOTION_DDOT": 0}, "tle": {"line1": "1 31088U 99025BGJ 25358.98997999  .00004076  00000+0  16305-2 0  9990", "line2": "2 31088  99.4104  60.1294 0027808  25.3934 101.2263 14.28788857967243"}}, "geometry": {"type": "Point", "coordinates": [-162.5012210682081, -76.74976825918976]}}, {"type": "Feature", "properties": {"norad_id": 31089, "name": "FENGYUN 1C DEB", "group": "fengyun-1c-debris", "lat": 79.51613855664557, "lon": 84.08713254595813, "alt_km": 919.9827966937628, "timestamp": "2025-12-26T23:26:42.408490+00:00", "meta": {"OBJECT_NAME": "FENGYUN 1C DEB", "OBJECT_ID": "1999-025BGK", "EPOCH": "2025-12-25T15:59:48.459840", "MEAN_MOTION": 13.88351934, "ECCENTRICITY": 0.0206319, "INCLINATION": 98.9494, "RA_OF_ASC_NODE": 141.2095, "ARG_OF_PERICENTER": 176.6075, "MEAN_ANOMALY": 204.6418, "EPHEMERIS_TYPE": 0, "CLASSIFICATION_TYPE": "U", "NORAD_CAT_ID": 31089, "ELEMENT_SET_NO": 999, "REV_AT_EPOCH": 68239, "BSTAR": 0.00077803, "MEAN_MOTION_DOT": 1.063e-05, "MEAN_MOTION_DDOT": 0}, "tle": {"line1": "1 31089U 99025BGK 25359.66653310  .00001063  00000+0  77803-3 0  9997", "line2": "2 31089  98.9494 141.2095 0206319 176.6075 204.6418 13.88351934682399"}}, "geometry": {"type": "Point", "coordinates": [84.08713254595813, 79.51613855664557]}}, {"type": "Feature", "properties": {"norad_id": 31090, "name": "FENGYUN 1C DEB", "group": "fengyun-1c-debris", "lat": 64.74476157871055, "lon": 88.49084987459179, "alt_km": 419.7278797106119, "timestamp": "2025-12-26T23:26:42.408499+00:00", "meta": {"OBJECT_NAME": "FENGYUN 1C DEB", "OBJECT_ID": "1999-025BGL", "EPOCH": "2025-12-24T19:31:31.069920", "MEAN_MOTION": 15.34706552, "ECCENTRICITY": 0.00535955, "INCLINATION": 98.9814, "RA_OF_ASC_NODE": 105.4491, "ARG_OF_PERICENTER": 90.5169, "MEAN_ANOMALY": 270.2211, "EPHEMERIS_TYPE": 0, "CLASSIFICATION_TYPE": "U", "NORAD_CAT_ID": 31090, "ELEMENT_SET_NO": 999, "REV_AT_EPOCH": 1023, "BSTAR": 0.0015790322, "MEAN_MOTION_DOT": 0.00055898, "MEAN_MOTION_DDOT": 0}, "tle": {"line1": "1 31090U 99025BGL 25358.81355405  .00055898  00000+0  15790-2 0  9990", "line2": "2 31090  98.9814 105.4491 0053595  90.5169 270.2211 15.34706552 10234"}}, "geometry": {"type": "Point", "coordinates": [88.49084987459179, 64.74476157871055]}}]}